{
    "links": {
        "self": "http://www.neowsapp.com/rest/v1/neo/3831183?api_key=iIulBulltgU6a56xZRHN4H3l9WmuAYTsLGpBGhQ2"
    },
    "id": "3831183",
    "neo_reference_id": "3831183",
    "name": "(2018 SU3)",
    "designation": "2018 SU3",
    "nasa_jpl_url": "http://ssd.jpl.nasa.gov/sbdb.cgi?sstr=3831183",
    "absolute_magnitude_h": 22.8,
    "estimated_diameter": {
        "kilometers": {
            "estimated_diameter_min": 0.0732073989,
            "estimated_diameter_max": 0.1636967205
        },
        "meters": {
            "estimated_diameter_min": 73.2073989347,
            "estimated_diameter_max": 163.696720474
        },
        "miles": {
            "estimated_diameter_min": 0.0454889547,
            "estimated_diameter_max": 0.1017163949
        },
        "feet": {
            "estimated_diameter_min": 240.181762721,
            "estimated_diameter_max": 537.0627483999
        }
    },
    "is_potentially_hazardous_asteroid": false,
    "close_approach_data": [
        {
            "close_approach_date": "2018-10-15",
            "close_approach_date_full": "2018-Oct-15 03:44",
            "epoch_date_close_approach": 1539575040000,
            "relative_velocity": {
                "kilometers_per_second": "18.7648362178",
                "kilometers_per_hour": "67553.4103840228",
                "miles_per_hour": "41975.0621355613"
            },
            "miss_distance": {
                "astronomical": "0.1616372848",
                "lunar": "62.8769037872",
                "kilometers": "24180593.518663376",
                "miles": "15025124.0882355488"
            },
            "orbiting_body": "Earth"
        },
        {
            "close_approach_date": "2018-11-07",
            "close_approach_date_full": "2018-Nov-07 16:28",
            "epoch_date_close_approach": 1541608080000,
            "relative_velocity": {
                "kilometers_per_second": "18.8482025655",
                "kilometers_per_hour": "67853.5292358464",
                "miles_per_hour": "42161.5443187958"
            },
            "miss_distance": {
                "astronomical": "0.1363415999",
                "lunar": "53.0368823611",
                "kilometers": "20396412.937432213",
                "miles": "12673743.3100340194"
            },
            "orbiting_body": "Venus"
        },
        {
            "close_approach_date": "2050-09-24",
            "close_approach_date_full": "2050-Sep-24 01:34",
            "epoch_date_close_approach": 2547596040000,
            "relative_velocity": {
                "kilometers_per_second": "31.7543749815",
                "kilometers_per_hour": "114315.7499335282",
                "miles_per_hour": "71031.361396197"
            },
            "miss_distance": {
                "astronomical": "0.2758884902",
                "lunar": "107.3206226878",
                "kilometers": "41272330.491435874",
                "miles": "25645436.9726641012"
            },
            "orbiting_body": "Earth"
        }
    ],
    "orbital_data": {
        "orbit_id": "4",
        "orbit_determination_date": "2018-10-15 07:14:30",
        "first_observation_date": "2018-09-30",
        "last_observation_date": "2018-10-14",
        "data_arc_in_days": 14,
        "observations_used": 39,
        "orbit_uncertainty": "8",
        "minimum_orbit_intersection": ".0181373",
        "jupiter_tisserand_invariant": "3.911",
        "epoch_osculation": "2458395.5",
        "eccentricity": ".7306049841854669",
        "semi_major_axis": "1.654500282873181",
        "inclination": "5.837412236380888",
        "ascending_node_longitude": "203.5848574133783",
        "orbital_period": "777.3179479334119",
        "perihelion_distance": ".4457141298697701",
        "perihelion_argument": "277.870999848747",
        "aphelion_distance": "2.863286435876592",
        "perihelion_time": "2458455.250314940377",
        "mean_anomaly": "332.3277798541475",
        "mean_motion": ".4631309504136639",
        "equinox": "J2000",
        "orbit_class": {
            "orbit_class_type": "APO",
            "orbit_class_description": "Near-Earth asteroid orbits which cross the Earth’s orbit similar to that of 1862 Apollo",
            "orbit_class_range": "a (semi-major axis) > 1.0 AU; q (perihelion) < 1.017 AU"
        }
    },
    "is_sentry_object": false
}